ISS (ZARYA)             
1 25544U 98067A   26167.09292088  .00007536  00000+0  14355-3 0  9991
2 25544  51.6337 305.5091 0004805 191.3253 168.7628 15.49253146571585
OSCAR 7 (AO-7)          
1 07530U 74089B   26167.33394869 -.00000041  00000+0  34184-4 0  9999
2 07530 101.9900 180.5717 0012563 131.7139 239.8615 12.53698098360417
PHASE 3B (AO-10)        
1 14129U 83058B   26166.42721388  .00000161  00000+0  00000+0 0  9993
2 14129  25.9108 219.8563 6011456 115.1838 317.1369  2.05868643295455
UOSAT 2 (UO-11)         
1 14781U 84021B   26167.28169156  .00000975  00000+0  10480-3 0  9992
2 14781  97.8058 132.8664 0007553 175.4457 184.6832 14.90781391256999
LUSAT (LO-19)           
1 20442U 90005G   26167.13543233  .00000094  00000+0  50454-4 0  9996
2 20442  98.8851 188.9121 0011064 204.3265 155.7398 14.34122929902249
EYESAT A (AO-27)        
1 22825U 93061C   26167.16078916  .00000088  00000+0  50437-4 0  9996
2 22825  98.6881 234.5747 0009532 102.3705 257.8545 14.30942024706851
ITAMSAT (IO-26)         
1 22826U 93061D   26167.00070187  .00000084  00000+0  48660-4 0  9993
2 22826  98.6828 234.3320 0010096  88.1549 272.0790 14.31368850707146
RADIO ROSTO (RS15)      
1 23439U 94085A   26167.05171201 -.00000054  00000+0 -32993-3 0  9995
2 23439  64.8179 305.0526 0155919   4.0859 356.1299 11.27583453295779
JAS-2 (FO-29)           
1 24278U 96046B   26166.83242779  .00000013  00000+0  45763-4 0  9993
2 24278  98.5240  15.8902 0350884  99.9379 264.1549 13.53274294472983
TECHSAT 1B (GO-32)      
1 25397U 98043D   26167.22147388  .00000030  00000+0  33141-4 0  9995
2 25397  99.0067 159.9557 0001002 165.2007 194.9200 14.24428195451199
PCSAT (NO-44)           
1 26931U 01043C   26167.32117018  .00000076  00000+0  59469-4 0  9993
2 26931  67.0506 246.5117 0006075 264.6172  95.4237 14.31955843290328
SAUDISAT 1C (SO-50)     
1 27607U 02058C   26167.27867643  .00000856  00000+0  11841-3 0  9998
2 27607  64.5510 131.7962 0075279 262.6422  96.6125 14.83045303264325
CUTE-1 (CO-55)          
1 27844U 03031E   26167.26444773  .00000236  00000+0  12107-3 0  9995
2 27844  98.6736 175.8349 0009467 180.6624 179.4544 14.24335232191549
CUBESAT XI-IV (CO-57)   
1 27848U 03031J   26166.97130938  .00000200  00000+0  10702-3 0  9991
2 27848  98.6765 175.2591 0008944 200.7616 159.3200 14.23620242191208
MOZHAETS 4 (RS22)       
1 27939U 03042A   26167.34069624  .00000437  00000+0  75630-4 0  9993
2 27939  98.3462 351.6754 0009934 272.8490 208.6737 14.73465031215423
CUBESAT XI-V            
1 28895U 05043F   26166.90778411  .00001212  00000+0  19838-3 0  9999
2 28895  98.2984 322.5028 0013554 204.9214 155.1340 14.72628612101567
CUTE-1.7+APD II (CO-65) 
1 32785U 08021C   26167.25441198  .00003812  00000+0  24216-3 0  9993
2 32785  97.8271 148.6535 0009882  42.0213 318.1772 15.09444415985055
SEEDS II (CO-66)        
1 32791U 08021J   26166.96044239  .00015094  00000+0  47997-3 0  9998
2 32791  97.7511 164.7995 0001225   8.5431 351.5831 15.32715926987108
YUBILEINY (RS30)        
1 32953U 08025A   26167.29368187  .00000092  00000+0  58839-3 0  9999
2 32953  82.5038 355.9964 0018899 315.9355  44.0218 12.43179662819588
KKS-1 (KISEKI)          
1 33499U 09002H   26167.31207149  .00001157  00000+0  14878-3 0  9992
2 33499  98.1190  89.7405 0006584 299.3128  60.7427 14.83122279936067
SWISSCUBE               
1 35932U 09051B   26167.27923453  .00000836  00000+0  17480-3 0  9993
2 35932  98.4037  75.1516 0005898 206.1840 153.9064 14.62480239889025
BEESAT-1                
1 35933U 09051C   26167.28819711  .00000696  00000+0  14946-3 0  9994
2 35933  98.3965  74.7982 0004172 220.4264 139.6627 14.61719271889059
ITUPSAT1                
1 35935U 09051E   26167.27829992  .00000645  00000+0  14315-3 0  9991
2 35935  98.4049  73.9810 0006227 237.3413 122.7187 14.60439597888605
XIWANG-1 (HOPE-1)       
1 36122U 09072B   26167.25589375 -.00000314  00000+0 -70650-3 0  9998
2 36122 100.4025 121.1031 0006858 234.0890 125.9587 13.16437719792883
O/OREOS (USA 219)       
1 37224U 10062C   26167.19160790  .00001939  00000+0  18866-3 0  9995
2 37224  71.9714  82.5947 0012532  65.2237 295.0236 14.93741110116491
JUGNU                   
1 37839U 11058B   26167.11854749  .00000400  00000+0  69482-4 0  9992
2 37839  19.9617 314.9218 0018636  64.4642 109.1077 14.13776503758870
SRMSAT                  
1 37841U 11058D   26167.08586324  .00000355  00000+0  48745-4 0  9990
2 37841  19.9722  66.1331 0011815 191.4739 210.8496 14.11575350757668
STRAND-1                
1 39090U 13009E   26167.22054666  .00000219  00000+0  88132-4 0  9994
2 39090  98.3921 347.4787 0007680 228.5958 131.4569 14.37162791696927
ZACUBE-1 (TSHEPISOSAT)  
1 39417U 13066B   26167.14083163  .00002688  00000+0  21090-3 0  9996
2 39417  97.8082 129.4722 0040689 251.3313 108.3491 15.01184047680575
GOMX-1                  
1 39430U 13066Q   26167.30075272  .00001511  00000+0  23141-3 0  9994
2 39430  97.6477   7.8198 0130178  80.3496 281.2389 14.69457255669781
